CCSDS_OMM_VERS = 2.0
CREATION_DATE  = 
ORIGINATOR     = 

OBJECT_NAME    = STARLINK-36656
OBJECT_ID      = 2026-033W
CENTER_NAME    = EARTH
REF_FRAME      = TEME
TIME_SYSTEM    = UTC
MEAN_ELEMENT_THEORY = SGP/SGP4

EPOCH          = 2026-03-07T23:24:41.113440
MEAN_MOTION    = 15.82180151
ECCENTRICITY   = .0001897
INCLINATION    = 42.9973
RA_OF_ASC_NODE = 281.8272
ARG_OF_PERICENTER = 285.8293
MEAN_ANOMALY   = 74.2369

EPHEMERIS_TYPE = 0
CLASSIFICATION_TYPE = U
NORAD_CAT_ID   = 67841
ELEMENT_SET_NO = 999
REV_AT_EPOCH   = 435
BSTAR          = .24615E-2
MEAN_MOTION_DOT = .556773E-2
MEAN_MOTION_DDOT = 0

CCSDS_OMM_VERS = 2.0
CREATION_DATE  = 
ORIGINATOR     = 

OBJECT_NAME    = STARLINK-36653
OBJECT_ID      = 2026-033X
CENTER_NAME    = EARTH
REF_FRAME      = TEME
TIME_SYSTEM    = UTC
MEAN_ELEMENT_THEORY = SGP/SGP4

EPOCH          = 2026-03-07T23:23:36.697920
MEAN_MOTION    = 15.82147253
ECCENTRICITY   = .0001211
INCLINATION    = 42.9978
RA_OF_ASC_NODE = 281.8202
ARG_OF_PERICENTER = 289.0069
MEAN_ANOMALY   = 71.0672

EPHEMERIS_TYPE = 0
CLASSIFICATION_TYPE = U
NORAD_CAT_ID   = 67842
ELEMENT_SET_NO = 999
REV_AT_EPOCH   = 435
BSTAR          = .22095E-2
MEAN_MOTION_DOT = .495389E-2
MEAN_MOTION_DDOT = 0

CCSDS_OMM_VERS = 2.0
CREATION_DATE  = 
ORIGINATOR     = 

OBJECT_NAME    = STARLINK-36589
OBJECT_ID      = 2026-033Y
CENTER_NAME    = EARTH
REF_FRAME      = TEME
TIME_SYSTEM    = UTC
MEAN_ELEMENT_THEORY = SGP/SGP4

EPOCH          = 2026-03-07T23:22:31.556640
MEAN_MOTION    = 15.82025409
ECCENTRICITY   = .0001961
INCLINATION    = 42.9976
RA_OF_ASC_NODE = 281.8140
ARG_OF_PERICENTER = 259.8098
MEAN_ANOMALY   = 100.2552

EPHEMERIS_TYPE = 0
CLASSIFICATION_TYPE = U
NORAD_CAT_ID   = 67843
ELEMENT_SET_NO = 999
REV_AT_EPOCH   = 435
BSTAR          = .67641E-3
MEAN_MOTION_DOT = .14436E-2
MEAN_MOTION_DDOT = 0

CCSDS_OMM_VERS = 2.0
CREATION_DATE  = 
ORIGINATOR     = 

OBJECT_NAME    = STARLINK-36598
OBJECT_ID      = 2026-033Z
CENTER_NAME    = EARTH
REF_FRAME      = TEME
TIME_SYSTEM    = UTC
MEAN_ELEMENT_THEORY = SGP/SGP4

EPOCH          = 2026-03-07T23:21:25.971264
MEAN_MOTION    = 15.82077766
ECCENTRICITY   = .0003339
INCLINATION    = 42.9973
RA_OF_ASC_NODE = 281.8082
ARG_OF_PERICENTER = 245.5826
MEAN_ANOMALY   = 114.4697

EPHEMERIS_TYPE = 0
CLASSIFICATION_TYPE = U
NORAD_CAT_ID   = 67844
ELEMENT_SET_NO = 999
REV_AT_EPOCH   = 435
BSTAR          = .87262E-3
MEAN_MOTION_DOT = .187827E-2
MEAN_MOTION_DDOT = 0

CCSDS_OMM_VERS = 2.0
CREATION_DATE  = 
ORIGINATOR     = 

OBJECT_NAME    = STARLINK-36606
OBJECT_ID      = 2026-033AA
CENTER_NAME    = EARTH
REF_FRAME      = TEME
TIME_SYSTEM    = UTC
MEAN_ELEMENT_THEORY = SGP/SGP4

EPOCH          = 2026-03-07T23:20:21.721632
MEAN_MOTION    = 15.82172528
ECCENTRICITY   = .0002204
INCLINATION    = 42.9973
RA_OF_ASC_NODE = 281.8018
ARG_OF_PERICENTER = 298.9223
MEAN_ANOMALY   = 61.1428

EPHEMERIS_TYPE = 0
CLASSIFICATION_TYPE = U
NORAD_CAT_ID   = 67845
ELEMENT_SET_NO = 999
REV_AT_EPOCH   = 435
BSTAR          = .22252E-2
MEAN_MOTION_DOT = .499728E-2
MEAN_MOTION_DDOT = 0

CCSDS_OMM_VERS = 2.0
CREATION_DATE  = 
ORIGINATOR     = 

OBJECT_NAME    = STARLINK-36658
OBJECT_ID      = 2026-033AB
CENTER_NAME    = EARTH
REF_FRAME      = TEME
TIME_SYSTEM    = UTC
MEAN_ELEMENT_THEORY = SGP/SGP4

EPOCH          = 2026-03-07T23:19:16.943232
MEAN_MOTION    = 15.82187090
ECCENTRICITY   = .0002113
INCLINATION    = 42.9972
RA_OF_ASC_NODE = 281.7958
ARG_OF_PERICENTER = 294.5045
MEAN_ANOMALY   = 65.5606

EPHEMERIS_TYPE = 0
CLASSIFICATION_TYPE = U
NORAD_CAT_ID   = 67846
ELEMENT_SET_NO = 999
REV_AT_EPOCH   = 435
BSTAR          = .2365E-2
MEAN_MOTION_DOT = .533632E-2
MEAN_MOTION_DDOT = 0

CCSDS_OMM_VERS = 2.0
CREATION_DATE  = 
ORIGINATOR     = 

OBJECT_NAME    = STARLINK-36618
OBJECT_ID      = 2026-033AC
CENTER_NAME    = EARTH
REF_FRAME      = TEME
TIME_SYSTEM    = UTC
MEAN_ELEMENT_THEORY = SGP/SGP4

EPOCH          = 2026-03-07T22:00:01.999584
MEAN_MOTION    = 15.91517175
ECCENTRICITY   = .0002232
INCLINATION    = 42.9833
RA_OF_ASC_NODE = 280.0676
ARG_OF_PERICENTER = 279.8644
MEAN_ANOMALY   = 220.8980

EPHEMERIS_TYPE = 0
CLASSIFICATION_TYPE = U
NORAD_CAT_ID   = 67847
ELEMENT_SET_NO = 999
REV_AT_EPOCH   = 437
BSTAR          = .13297E-4
MEAN_MOTION_DOT = .1834E-4
MEAN_MOTION_DDOT = .83403E-5

CCSDS_OMM_VERS = 2.0
CREATION_DATE  = 
ORIGINATOR     = 

OBJECT_NAME    = STARLINK-36660
OBJECT_ID      = 2026-033AD
CENTER_NAME    = EARTH
REF_FRAME      = TEME
TIME_SYSTEM    = UTC
MEAN_ELEMENT_THEORY = SGP/SGP4

EPOCH          = 2026-03-07T23:18:12.194208
MEAN_MOTION    = 15.82148025
ECCENTRICITY   = .000205
INCLINATION    = 42.9973
RA_OF_ASC_NODE = 281.7890
ARG_OF_PERICENTER = 278.3825
MEAN_ANOMALY   = 81.6814

EPHEMERIS_TYPE = 0
CLASSIFICATION_TYPE = U
NORAD_CAT_ID   = 67848
ELEMENT_SET_NO = 999
REV_AT_EPOCH   = 435
BSTAR          = .18087E-2
MEAN_MOTION_DOT = .400958E-2
MEAN_MOTION_DDOT = 0

CCSDS_OMM_VERS = 2.0
CREATION_DATE  = 
ORIGINATOR     = 

OBJECT_NAME    = STARLINK-36602
OBJECT_ID      = 2026-033AE
CENTER_NAME    = EARTH
REF_FRAME      = TEME
TIME_SYSTEM    = UTC
MEAN_ELEMENT_THEORY = SGP/SGP4

EPOCH          = 2026-03-07T23:17:07.391616
MEAN_MOTION    = 15.82167461
ECCENTRICITY   = .0002116
INCLINATION    = 42.9972
RA_OF_ASC_NODE = 281.7829
ARG_OF_PERICENTER = 293.3207
MEAN_ANOMALY   = 66.7442

EPHEMERIS_TYPE = 0
CLASSIFICATION_TYPE = U
NORAD_CAT_ID   = 67849
ELEMENT_SET_NO = 999
REV_AT_EPOCH   = 435
BSTAR          = .20301E-2
MEAN_MOTION_DOT = .453273E-2
MEAN_MOTION_DDOT = 0

CCSDS_OMM_VERS = 2.0
CREATION_DATE  = 
ORIGINATOR     = 

OBJECT_NAME    = STARLINK-36840
OBJECT_ID      = 2026-034A
CENTER_NAME    = EARTH
REF_FRAME      = TEME
TIME_SYSTEM    = UTC
MEAN_ELEMENT_THEORY = SGP/SGP4

EPOCH          = 2026-03-08T00:35:33.451872
MEAN_MOTION    = 15.80983128
ECCENTRICITY   = .0000922
INCLINATION    = 53.1590
RA_OF_ASC_NODE = 219.7018
ARG_OF_PERICENTER = 39.3913
MEAN_ANOMALY   = 320.7176

EPHEMERIS_TYPE = 0
CLASSIFICATION_TYPE = U
NORAD_CAT_ID   = 67850
ELEMENT_SET_NO = 999
REV_AT_EPOCH   = 367
BSTAR          = .14346E-2
MEAN_MOTION_DOT = .293791E-2
MEAN_MOTION_DDOT = 0

CCSDS_OMM_VERS = 2.0
CREATION_DATE  = 
ORIGINATOR     = 

OBJECT_NAME    = STARLINK-36348
OBJECT_ID      = 2026-034B
CENTER_NAME    = EARTH
REF_FRAME      = TEME
TIME_SYSTEM    = UTC
MEAN_ELEMENT_THEORY = SGP/SGP4

EPOCH          = 2026-03-07T23:03:26.199360
MEAN_MOTION    = 15.80970480
ECCENTRICITY   = .0000728
INCLINATION    = 53.1593
RA_OF_ASC_NODE = 220.0128
ARG_OF_PERICENTER = 134.9891
MEAN_ANOMALY   = 225.1191

EPHEMERIS_TYPE = 0
CLASSIFICATION_TYPE = U
NORAD_CAT_ID   = 67851
ELEMENT_SET_NO = 999
REV_AT_EPOCH   = 366
BSTAR          = .1091E-2
MEAN_MOTION_DOT = .221224E-2
MEAN_MOTION_DDOT = 0

CCSDS_OMM_VERS = 2.0
CREATION_DATE  = 
ORIGINATOR     = 

OBJECT_NAME    = STARLINK-36276
OBJECT_ID      = 2026-034C
CENTER_NAME    = EARTH
REF_FRAME      = TEME
TIME_SYSTEM    = UTC
MEAN_ELEMENT_THEORY = SGP/SGP4

EPOCH          = 2026-03-08T00:33:24.198336
MEAN_MOTION    = 15.80943099
ECCENTRICITY   = .0001276
INCLINATION    = 53.1593
RA_OF_ASC_NODE = 219.6913
ARG_OF_PERICENTER = 73.9031
MEAN_ANOMALY   = 286.2132

EPHEMERIS_TYPE = 0
CLASSIFICATION_TYPE = U
NORAD_CAT_ID   = 67852
ELEMENT_SET_NO = 999
REV_AT_EPOCH   = 367
BSTAR          = .11019E-2
MEAN_MOTION_DOT = .223205E-2
MEAN_MOTION_DDOT = 0

