STARLINK-36656          
1 67841U 26033W   26066.97547585  .00556773  00000+0  24615-2 0  9992
2 67841  42.9973 281.8272 0001897 285.8293  74.2369 15.82180151  4359
STARLINK-36653          
1 67842U 26033X   26066.97473030  .00495389  00000+0  22095-2 0  9991
2 67842  42.9978 281.8202 0001211 289.0069  71.0672 15.82147253  4353
STARLINK-36589          
1 67843U 26033Y   26066.97397635  .00144360  00000+0  67641-3 0  9995
2 67843  42.9976 281.8140 0001961 259.8098 100.2552 15.82025409  4352
STARLINK-36598          
1 67844U 26033Z   26066.97321726  .00187827  00000+0  87262-3 0  9990
2 67844  42.9973 281.8082 0003339 245.5826 114.4697 15.82077766  4357
STARLINK-36606          
1 67845U 26033AA  26066.97247363  .00499728  00000+0  22252-2 0  9998
2 67845  42.9973 281.8018 0002204 298.9223  61.1428 15.82172528  4352
STARLINK-36658          
1 67846U 26033AB  26066.97172388  .00533632  00000+0  23650-2 0  9999
2 67846  42.9972 281.7958 0002113 294.5045  65.5606 15.82187090  4353
STARLINK-36618          
1 67847U 26033AC  26066.91668981  .00001834  83403-5  13297-4 0  9999
2 67847  42.9833 280.0676 0002232 279.8644 220.8980 15.91517175  4376
STARLINK-36660          
1 67848U 26033AD  26066.97097447  .00400958  00000+0  18087-2 0  9995
2 67848  42.9973 281.7890 0002050 278.3825  81.6814 15.82148025  4352
STARLINK-36602          
1 67849U 26033AE  26066.97022444  .00453273  00000+0  20301-2 0  9991
2 67849  42.9972 281.7829 0002116 293.3207  66.7442 15.82167461  4354
STARLINK-36840          
1 67850U 26034A   26067.02469273  .00293791  00000+0  14346-2 0  9995
2 67850  53.1590 219.7018 0000922  39.3913 320.7176 15.80983128  3677
STARLINK-36348          
1 67851U 26034B   26066.96071990  .00221224  00000+0  10910-2 0  9998
2 67851  53.1593 220.0128 0000728 134.9891 225.1191 15.80970480  3660
STARLINK-36276          
1 67852U 26034C   26067.02319674  .00223205  00000+0  11019-2 0  9993
2 67852  53.1593 219.6913 0001276  73.9031 286.2132 15.80943099  3674
